[{"OBJECT_NAME":"ONEWEB-0457","OBJECT_ID":"2022-012AB","EPOCH":"2026-06-05T09:47:45.387744","MEAN_MOTION":13.10375931,"ECCENTRICITY":0.0001955,"INCLINATION":87.8849,"RA_OF_ASC_NODE":38.6171,"ARG_OF_PERICENTER":92.1915,"MEAN_ANOMALY":267.9436,"EPHEMERIS_TYPE":0,"CLASSIFICATION_TYPE":"U","NORAD_CAT_ID":51647,"ELEMENT_SET_NO":999,"REV_AT_EPOCH":20780,"BSTAR":-0.00045666,"MEAN_MOTION_DOT":-1.47e-06,"MEAN_MOTION_DDOT":0.0},{"OBJECT_NAME":"ONEWEB-0458","OBJECT_ID":"2022-012AC","EPOCH":"2026-06-05T10:19:06.301056","MEAN_MOTION":13.10388929,"ECCENTRICITY":0.0002123,"INCLINATION":87.8853,"RA_OF_ASC_NODE":38.6001,"ARG_OF_PERICENTER":76.4219,"MEAN_ANOMALY":283.7145,"EPHEMERIS_TYPE":0,"CLASSIFICATION_TYPE":"U","NORAD_CAT_ID":51648,"ELEMENT_SET_NO":999,"REV_AT_EPOCH":20776,"BSTAR":0.0041017,"MEAN_MOTION_DOT":1.445e-05,"MEAN_MOTION_DDOT":0.0},{"OBJECT_NAME":"ONEWEB-0461","OBJECT_ID":"2022-012AD","EPOCH":"2026-06-05T16:28:57.980352","MEAN_MOTION":13.1764813,"ECCENTRICITY":0.0001871,"INCLINATION":87.915,"RA_OF_ASC_NODE":8.1444,"ARG_OF_PERICENTER":91.3353,"MEAN_ANOMALY":268.7993,"EPHEMERIS_TYPE":0,"CLASSIFICATION_TYPE":"U","NORAD_CAT_ID":51649,"ELEMENT_SET_NO":999,"REV_AT_EPOCH":21237,"BSTAR":9.8962e-07,"MEAN_MOTION_DOT":1.3e-07,"MEAN_MOTION_DDOT":0.0},{"OBJECT_NAME":"ONEWEB-0463","OBJECT_ID":"2022-012AE","EPOCH":"2026-06-05T12:23:33.509184","MEAN_MOTION":13.17650733,"ECCENTRICITY":0.0001916,"INCLINATION":87.9143,"RA_OF_ASC_NODE":8.2015,"ARG_OF_PERICENTER":93.3959,"MEAN_ANOMALY":266.7392,"EPHEMERIS_TYPE":0,"CLASSIFICATION_TYPE":"U","NORAD_CAT_ID":51650,"ELEMENT_SET_NO":999,"REV_AT_EPOCH":21213,"BSTAR":0.00028105000000000003,"MEAN_MOTION_DOT":1.22e-06,"MEAN_MOTION_DDOT":0.0},{"OBJECT_NAME":"ONEWEB-0464","OBJECT_ID":"2022-012AF","EPOCH":"2026-06-05T01:04:30.727776","MEAN_MOTION":13.10375806,"ECCENTRICITY":0.0001764,"INCLINATION":87.8847,"RA_OF_ASC_NODE":38.6983,"ARG_OF_PERICENTER":76.8785,"MEAN_ANOMALY":283.254,"EPHEMERIS_TYPE":0,"CLASSIFICATION_TYPE":"U","NORAD_CAT_ID":51651,"ELEMENT_SET_NO":999,"REV_AT_EPOCH":20773,"BSTAR":0.0021917,"MEAN_MOTION_DOT":7.78e-06,"MEAN_MOTION_DDOT":0.0},{"OBJECT_NAME":"ONEWEB-0468","OBJECT_ID":"2022-012AG","EPOCH":"2026-06-05T03:04:01.577856","MEAN_MOTION":13.10374373,"ECCENTRICITY":0.0001748,"INCLINATION":87.8835,"RA_OF_ASC_NODE":38.677,"ARG_OF_PERICENTER":69.8858,"MEAN_ANOMALY":290.2458,"EPHEMERIS_TYPE":0,"CLASSIFICATION_TYPE":"U","NORAD_CAT_ID":51652,"ELEMENT_SET_NO":999,"REV_AT_EPOCH":20772,"BSTAR":0.0028693000000000004,"MEAN_MOTION_DOT":1.014e-05,"MEAN_MOTION_DDOT":0.0},{"OBJECT_NAME":"ONEWEB-0473","OBJECT_ID":"2022-012AH","EPOCH":"2026-06-05T10:02:19.500000","MEAN_MOTION":13.10376874,"ECCENTRICITY":0.0001822,"INCLINATION":87.8846,"RA_OF_ASC_NODE":38.6205,"ARG_OF_PERICENTER":77.032,"MEAN_ANOMALY":283.101,"EPHEMERIS_TYPE":0,"CLASSIFICATION_TYPE":"U","NORAD_CAT_ID":51653,"ELEMENT_SET_NO":999,"REV_AT_EPOCH":20776,"BSTAR":0.00099022,"MEAN_MOTION_DOT":3.58e-06,"MEAN_MOTION_DDOT":0.0},{"OBJECT_NAME":"ONEWEB-0474","OBJECT_ID":"2022-012AJ","EPOCH":"2026-06-04T15:30:48.846816","MEAN_MOTION":13.10378117,"ECCENTRICITY":0.0001795,"INCLINATION":87.8858,"RA_OF_ASC_NODE":38.7572,"ARG_OF_PERICENTER":72.8407,"MEAN_ANOMALY":287.2917,"EPHEMERIS_TYPE":0,"CLASSIFICATION_TYPE":"U","NORAD_CAT_ID":51654,"ELEMENT_SET_NO":999,"REV_AT_EPOCH":20765,"BSTAR":0.00037568000000000004,"MEAN_MOTION_DOT":1.44e-06,"MEAN_MOTION_DDOT":0.0},{"OBJECT_NAME":"ONEWEB-0475","OBJECT_ID":"2022-012AK","EPOCH":"2026-06-05T07:12:31.275936","MEAN_MOTION":13.17649632,"ECCENTRICITY":0.000182,"INCLINATION":87.914,"RA_OF_ASC_NODE":8.237,"ARG_OF_PERICENTER":64.6808,"MEAN_ANOMALY":295.4512,"EPHEMERIS_TYPE":0,"CLASSIFICATION_TYPE":"U","NORAD_CAT_ID":51655,"ELEMENT_SET_NO":999,"REV_AT_EPOCH":21212,"BSTAR":-6.6851e-07,"MEAN_MOTION_DOT":1.3e-07,"MEAN_MOTION_DDOT":0.0},{"OBJECT_NAME":"ONEWEB-0490","OBJECT_ID":"2022-138A","EPOCH":"2026-06-05T16:28:11.275104","MEAN_MOTION":13.19726286,"ECCENTRICITY":0.000164,"INCLINATION":87.9169,"RA_OF_ASC_NODE":307.2583,"ARG_OF_PERICENTER":95.1585,"MEAN_ANOMALY":264.9735,"EPHEMERIS_TYPE":0,"CLASSIFICATION_TYPE":"U","NORAD_CAT_ID":54113,"ELEMENT_SET_NO":999,"REV_AT_EPOCH":17531,"BSTAR":-0.00020117,"MEAN_MOTION_DOT":-6.8e-07,"MEAN_MOTION_DDOT":0.0},{"OBJECT_NAME":"ONEWEB-0492","OBJECT_ID":"2022-138B","EPOCH":"2026-06-05T17:04:35.917248","MEAN_MOTION":13.19723214,"ECCENTRICITY":0.0001631,"INCLINATION":87.9149,"RA_OF_ASC_NODE":307.2556,"ARG_OF_PERICENTER":103.3251,"MEAN_ANOMALY":256.8064,"EPHEMERIS_TYPE":0,"CLASSIFICATION_TYPE":"U","NORAD_CAT_ID":54114,"ELEMENT_SET_NO":999,"REV_AT_EPOCH":17532,"BSTAR":0.0023262,"MEAN_MOTION_DOT":9.44e-06,"MEAN_MOTION_DDOT":0.0},{"OBJECT_NAME":"ONEWEB-0495","OBJECT_ID":"2022-138C","EPOCH":"2026-06-05T16:32:44.256768","MEAN_MOTION":13.19725476,"ECCENTRICITY":0.000115,"INCLINATION":87.9164,"RA_OF_ASC_NODE":307.2627,"ARG_OF_PERICENTER":88.8269,"MEAN_ANOMALY":271.2995,"EPHEMERIS_TYPE":0,"CLASSIFICATION_TYPE":"U","NORAD_CAT_ID":54115,"ELEMENT_SET_NO":999,"REV_AT_EPOCH":17530,"BSTAR":-0.00046816999999999996,"MEAN_MOTION_DOT":-1.74e-06,"MEAN_MOTION_DDOT":0.0},{"OBJECT_NAME":"ONEWEB-0497","OBJECT_ID":"2022-138D","EPOCH":"2026-06-05T16:50:55.949280","MEAN_MOTION":13.19725531,"ECCENTRICITY":0.0001771,"INCLINATION":87.9164,"RA_OF_ASC_NODE":307.2515,"ARG_OF_PERICENTER":96.8406,"MEAN_ANOMALY":263.2928,"EPHEMERIS_TYPE":0,"CLASSIFICATION_TYPE":"U","NORAD_CAT_ID":54116,"ELEMENT_SET_NO":999,"REV_AT_EPOCH":17529,"BSTAR":-0.000622,"MEAN_MOTION_DOT":-2.36e-06,"MEAN_MOTION_DDOT":0.0},{"OBJECT_NAME":"ONEWEB-0499","OBJECT_ID":"2022-138E","EPOCH":"2026-06-05T16:27:04.372128","MEAN_MOTION":13.19726126,"ECCENTRICITY":0.0001655,"INCLINATION":87.9165,"RA_OF_ASC_NODE":307.2651,"ARG_OF_PERICENTER":90.7156,"MEAN_ANOMALY":269.4166,"EPHEMERIS_TYPE":0,"CLASSIFICATION_TYPE":"U","NORAD_CAT_ID":54117,"ELEMENT_SET_NO":999,"REV_AT_EPOCH":17530,"BSTAR":0.00016089999999999998,"MEAN_MOTION_DOT":7.7e-07,"MEAN_MOTION_DDOT":0.0},{"OBJECT_NAME":"ONEWEB-0500","OBJECT_ID":"2022-138F","EPOCH":"2026-06-05T16:30:27.772416","MEAN_MOTION":13.19703123,"ECCENTRICITY":0.0001726,"INCLINATION":87.9174,"RA_OF_ASC_NODE":307.2572,"ARG_OF_PERICENTER":108.1504,"MEAN_ANOMALY":251.9816,"EPHEMERIS_TYPE":0,"CLASSIFICATION_TYPE":"U","NORAD_CAT_ID":54118,"ELEMENT_SET_NO":999,"REV_AT_EPOCH":17531,"BSTAR":0.01069,"MEAN_MOTION_DOT":4.293e-05,"MEAN_MOTION_DDOT":0.0},{"OBJECT_NAME":"ONEWEB-0501","OBJECT_ID":"2022-138G","EPOCH":"2026-06-05T09:56:57.513120","MEAN_MOTION":13.19763634,"ECCENTRICITY":0.0002489,"INCLINATION":87.9166,"RA_OF_ASC_NODE":307.3134,"ARG_OF_PERICENTER":114.2342,"MEAN_ANOMALY":245.9051,"EPHEMERIS_TYPE":0,"CLASSIFICATION_TYPE":"U","NORAD_CAT_ID":54119,"ELEMENT_SET_NO":999,"REV_AT_EPOCH":17525,"BSTAR":-0.018866,"MEAN_MOTION_DOT":-7.538e-05,"MEAN_MOTION_DDOT":0.0},{"OBJECT_NAME":"ONEWEB-0502","OBJECT_ID":"2022-138H","EPOCH":"2026-06-05T16:53:11.332896","MEAN_MOTION":13.1972494,"ECCENTRICITY":0.0001655,"INCLINATION":87.9171,"RA_OF_ASC_NODE":307.2426,"ARG_OF_PERICENTER":88.816,"MEAN_ANOMALY":271.3162,"EPHEMERIS_TYPE":0,"CLASSIFICATION_TYPE":"U","NORAD_CAT_ID":54120,"ELEMENT_SET_NO":999,"REV_AT_EPOCH":17531,"BSTAR":-0.00046519,"MEAN_MOTION_DOT":-1.73e-06,"MEAN_MOTION_DDOT":0.0},{"OBJECT_NAME":"ONEWEB-0503","OBJECT_ID":"2022-138J","EPOCH":"2026-06-05T16:37:17.096736","MEAN_MOTION":13.1972524,"ECCENTRICITY":0.0002015,"INCLINATION":87.9172,"RA_OF_ASC_NODE":307.2504,"ARG_OF_PERICENTER":89.8041,"MEAN_ANOMALY":270.3322,"EPHEMERIS_TYPE":0,"CLASSIFICATION_TYPE":"U","NORAD_CAT_ID":54121,"ELEMENT_SET_NO":999,"REV_AT_EPOCH":17530,"BSTAR":-0.00046675,"MEAN_MOTION_DOT":-1.74e-06,"MEAN_MOTION_DDOT":0.0},{"OBJECT_NAME":"ONEWEB-0504","OBJECT_ID":"2022-138K","EPOCH":"2026-06-05T16:19:05.869920","MEAN_MOTION":13.1972531,"ECCENTRICITY":0.0001742,"INCLINATION":87.9175,"RA_OF_ASC_NODE":307.2594,"ARG_OF_PERICENTER":88.8595,"MEAN_ANOMALY":271.2737,"EPHEMERIS_TYPE":0,"CLASSIFICATION_TYPE":"U","NORAD_CAT_ID":54122,"ELEMENT_SET_NO":999,"REV_AT_EPOCH":17531,"BSTAR":-3.6940000000000005e-06,"MEAN_MOTION_DOT":1.1e-07,"MEAN_MOTION_DDOT":0.0},{"OBJECT_NAME":"ONEWEB-0505","OBJECT_ID":"2022-138L","EPOCH":"2026-06-05T16:14:33.779040","MEAN_MOTION":13.19725692,"ECCENTRICITY":0.0001483,"INCLINATION":87.9169,"RA_OF_ASC_NODE":307.2595,"ARG_OF_PERICENTER":86.6544,"MEAN_ANOMALY":273.4758,"EPHEMERIS_TYPE":0,"CLASSIFICATION_TYPE":"U","NORAD_CAT_ID":54123,"ELEMENT_SET_NO":999,"REV_AT_EPOCH":17529,"BSTAR":0.00022463,"MEAN_MOTION_DOT":1.03e-06,"MEAN_MOTION_DDOT":0.0},{"OBJECT_NAME":"ONEWEB-0506","OBJECT_ID":"2022-138M","EPOCH":"2026-06-05T19:16:28.068096","MEAN_MOTION":13.19739259,"ECCENTRICITY":0.0001412,"INCLINATION":87.9153,"RA_OF_ASC_NODE":307.2316,"ARG_OF_PERICENTER":91.9452,"MEAN_ANOMALY":268.1842,"EPHEMERIS_TYPE":0,"CLASSIFICATION_TYPE":"U","NORAD_CAT_ID":54124,"ELEMENT_SET_NO":999,"REV_AT_EPOCH":17530,"BSTAR":0.0071087,"MEAN_MOTION_DOT":2.86e-05,"MEAN_MOTION_DDOT":0.0},{"OBJECT_NAME":"ONEWEB-0507","OBJECT_ID":"2022-138N","EPOCH":"2026-06-05T16:07:43.576896","MEAN_MOTION":13.19725662,"ECCENTRICITY":0.0001549,"INCLINATION":87.9161,"RA_OF_ASC_NODE":307.2703,"ARG_OF_PERICENTER":95.5913,"MEAN_ANOMALY":264.5397,"EPHEMERIS_TYPE":0,"CLASSIFICATION_TYPE":"U","NORAD_CAT_ID":54125,"ELEMENT_SET_NO":999,"REV_AT_EPOCH":17533,"BSTAR":-0.00033216,"MEAN_MOTION_DOT":-1.2e-06,"MEAN_MOTION_DDOT":0.0},{"OBJECT_NAME":"ONEWEB-0508","OBJECT_ID":"2022-138P","EPOCH":"2026-06-05T16:03:09.372672","MEAN_MOTION":13.19725786,"ECCENTRICITY":0.0001401,"INCLINATION":87.916,"RA_OF_ASC_NODE":307.2708,"ARG_OF_PERICENTER":97.6646,"MEAN_ANOMALY":262.4646,"EPHEMERIS_TYPE":0,"CLASSIFICATION_TYPE":"U","NORAD_CAT_ID":54126,"ELEMENT_SET_NO":999,"REV_AT_EPOCH":17531,"BSTAR":-0.00035238,"MEAN_MOTION_DOT":-1.28e-06,"MEAN_MOTION_DDOT":0.0}]